FIREFLY-1               
1 62701U 25009CW  26204.82730558  .00001449  00000+0  14568-3 0  9998
2 62701  97.7055 282.1956 0003309 188.8092 171.3070 14.92756391 82786
FIREFLY-2               
1 62704U 25009CZ  26204.67116802  .00000873  00000+0  89942-4 0  9993
2 62704  97.7012 281.8078 0005662 333.1606  26.9320 14.92748896 82765
FIREFLY-3               
1 62710U 25009DF  26204.85000765  .00001138  00000+0  11533-3 0  9995
2 62710  97.7046 282.2472 0004368  52.6210 307.5406 14.92816115 82806
